CCSDS_OMM_VERS = 2.0
CREATION_DATE  = 
ORIGINATOR     = 

OBJECT_NAME    = STARLINK-36551
OBJECT_ID      = 2026-012A
CENTER_NAME    = EARTH
REF_FRAME      = TEME
TIME_SYSTEM    = UTC
MEAN_ELEMENT_THEORY = SGP/SGP4

EPOCH          = 2026-02-17T04:00:00.999936
MEAN_MOTION    = 15.27571849
ECCENTRICITY   = .0001059
INCLINATION    = 42.9997
RA_OF_ASC_NODE = 70.6827
ARG_OF_PERICENTER = 265.5271
MEAN_ANOMALY   = 281.4425

EPHEMERIS_TYPE = 0
CLASSIFICATION_TYPE = U
NORAD_CAT_ID   = 67493
ELEMENT_SET_NO = 999
REV_AT_EPOCH   = 577
BSTAR          = .2357E-4
MEAN_MOTION_DOT = .387E-5
MEAN_MOTION_DDOT = 0

CCSDS_OMM_VERS = 2.0
CREATION_DATE  = 
ORIGINATOR     = 

OBJECT_NAME    = STARLINK-36396
OBJECT_ID      = 2026-012B
CENTER_NAME    = EARTH
REF_FRAME      = TEME
TIME_SYSTEM    = UTC
MEAN_ELEMENT_THEORY = SGP/SGP4

EPOCH          = 2026-02-17T04:00:00.999936
MEAN_MOTION    = 15.47322533
ECCENTRICITY   = .0001154
INCLINATION    = 43.0005
RA_OF_ASC_NODE = 70.8636
ARG_OF_PERICENTER = 286.0667
MEAN_ANOMALY   = 192.8759

EPHEMERIS_TYPE = 0
CLASSIFICATION_TYPE = U
NORAD_CAT_ID   = 67494
ELEMENT_SET_NO = 999
REV_AT_EPOCH   = 577
BSTAR          = -.39691E-1
MEAN_MOTION_DOT = -.1867476E-1
MEAN_MOTION_DDOT = 0

CCSDS_OMM_VERS = 2.0
CREATION_DATE  = 
ORIGINATOR     = 

OBJECT_NAME    = STARLINK-36550
OBJECT_ID      = 2026-012C
CENTER_NAME    = EARTH
REF_FRAME      = TEME
TIME_SYSTEM    = UTC
MEAN_ELEMENT_THEORY = SGP/SGP4

EPOCH          = 2026-02-17T04:00:00.999936
MEAN_MOTION    = 15.33442673
ECCENTRICITY   = .0000916
INCLINATION    = 43.0004
RA_OF_ASC_NODE = 70.6549
ARG_OF_PERICENTER = 297.8533
MEAN_ANOMALY   = 264.2253

EPHEMERIS_TYPE = 0
CLASSIFICATION_TYPE = U
NORAD_CAT_ID   = 67495
ELEMENT_SET_NO = 999
REV_AT_EPOCH   = 577
BSTAR          = -.62715E-1
MEAN_MOTION_DOT = -.1856192E-1
MEAN_MOTION_DDOT = 0

CCSDS_OMM_VERS = 2.0
CREATION_DATE  = 
ORIGINATOR     = 

OBJECT_NAME    = STARLINK-36534
OBJECT_ID      = 2026-012D
CENTER_NAME    = EARTH
REF_FRAME      = TEME
TIME_SYSTEM    = UTC
MEAN_ELEMENT_THEORY = SGP/SGP4

EPOCH          = 2026-02-17T04:00:00.999936
MEAN_MOTION    = 15.30216349
ECCENTRICITY   = .000172
INCLINATION    = 43.0000
RA_OF_ASC_NODE = 70.5031
ARG_OF_PERICENTER = 254.1715
MEAN_ANOMALY   = 8.0450

EPHEMERIS_TYPE = 0
CLASSIFICATION_TYPE = U
NORAD_CAT_ID   = 67496
ELEMENT_SET_NO = 999
REV_AT_EPOCH   = 571
BSTAR          = -.82867E-1
MEAN_MOTION_DOT = -.2212064E-1
MEAN_MOTION_DDOT = 0

CCSDS_OMM_VERS = 2.0
CREATION_DATE  = 
ORIGINATOR     = 

OBJECT_NAME    = STARLINK-36555
OBJECT_ID      = 2026-012E
CENTER_NAME    = EARTH
REF_FRAME      = TEME
TIME_SYSTEM    = UTC
MEAN_ELEMENT_THEORY = SGP/SGP4

EPOCH          = 2026-02-17T04:00:00.999936
MEAN_MOTION    = 15.30174634
ECCENTRICITY   = .0000298
INCLINATION    = 43.0005
RA_OF_ASC_NODE = 70.5359
ARG_OF_PERICENTER = 284.6947
MEAN_ANOMALY   = 324.0263

EPHEMERIS_TYPE = 0
CLASSIFICATION_TYPE = U
NORAD_CAT_ID   = 67497
ELEMENT_SET_NO = 999
REV_AT_EPOCH   = 577
BSTAR          = -.11E+0
MEAN_MOTION_DOT = -.2892793E-1
MEAN_MOTION_DDOT = 0

CCSDS_OMM_VERS = 2.0
CREATION_DATE  = 
ORIGINATOR     = 

OBJECT_NAME    = STARLINK-36081
OBJECT_ID      = 2026-012F
CENTER_NAME    = EARTH
REF_FRAME      = TEME
TIME_SYSTEM    = UTC
MEAN_ELEMENT_THEORY = SGP/SGP4

EPOCH          = 2026-02-17T04:00:00.999936
MEAN_MOTION    = 15.36535013
ECCENTRICITY   = .0000927
INCLINATION    = 43.0009
RA_OF_ASC_NODE = 70.5492
ARG_OF_PERICENTER = 281.7431
MEAN_ANOMALY   = 323.3955

EPHEMERIS_TYPE = 0
CLASSIFICATION_TYPE = U
NORAD_CAT_ID   = 67498
ELEMENT_SET_NO = 999
REV_AT_EPOCH   = 571
BSTAR          = -.56647E-1
MEAN_MOTION_DOT = -.1852772E-1
MEAN_MOTION_DDOT = 0

CCSDS_OMM_VERS = 2.0
CREATION_DATE  = 
ORIGINATOR     = 

OBJECT_NAME    = STARLINK-36558
OBJECT_ID      = 2026-012G
CENTER_NAME    = EARTH
REF_FRAME      = TEME
TIME_SYSTEM    = UTC
MEAN_ELEMENT_THEORY = SGP/SGP4

EPOCH          = 2026-02-17T04:00:00.999936
MEAN_MOTION    = 15.37402095
ECCENTRICITY   = .0000795
INCLINATION    = 43.0008
RA_OF_ASC_NODE = 70.5183
ARG_OF_PERICENTER = 277.0769
MEAN_ANOMALY   = 340.6090

EPHEMERIS_TYPE = 0
CLASSIFICATION_TYPE = U
NORAD_CAT_ID   = 67499
ELEMENT_SET_NO = 999
REV_AT_EPOCH   = 577
BSTAR          = -.55898E-1
MEAN_MOTION_DOT = -.1877848E-1
MEAN_MOTION_DDOT = 0

CCSDS_OMM_VERS = 2.0
CREATION_DATE  = 
ORIGINATOR     = 

OBJECT_NAME    = STARLINK-36557
OBJECT_ID      = 2026-012H
CENTER_NAME    = EARTH
REF_FRAME      = TEME
TIME_SYSTEM    = UTC
MEAN_ELEMENT_THEORY = SGP/SGP4

EPOCH          = 2026-02-17T04:00:00.999936
MEAN_MOTION    = 15.27555124
ECCENTRICITY   = .0001243
INCLINATION    = 42.9999
RA_OF_ASC_NODE = 70.3355
ARG_OF_PERICENTER = 292.0343
MEAN_ANOMALY   = 36.4579

EPHEMERIS_TYPE = 0
CLASSIFICATION_TYPE = U
NORAD_CAT_ID   = 67500
ELEMENT_SET_NO = 999
REV_AT_EPOCH   = 577
BSTAR          = .17138E-3
MEAN_MOTION_DOT = .4453E-4
MEAN_MOTION_DDOT = 0

CCSDS_OMM_VERS = 2.0
CREATION_DATE  = 
ORIGINATOR     = 

OBJECT_NAME    = STARLINK-36433
OBJECT_ID      = 2026-012J
CENTER_NAME    = EARTH
REF_FRAME      = TEME
TIME_SYSTEM    = UTC
MEAN_ELEMENT_THEORY = SGP/SGP4

EPOCH          = 2026-02-17T04:00:00.999936
MEAN_MOTION    = 15.27995917
ECCENTRICITY   = .0000429
INCLINATION    = 42.9994
RA_OF_ASC_NODE = 70.2830
ARG_OF_PERICENTER = 281.3695
MEAN_ANOMALY   = 68.1231

EPHEMERIS_TYPE = 0
CLASSIFICATION_TYPE = U
NORAD_CAT_ID   = 67501
ELEMENT_SET_NO = 999
REV_AT_EPOCH   = 577
BSTAR          = -.2511E-1
MEAN_MOTION_DOT = -.650139E-2
MEAN_MOTION_DDOT = 0

CCSDS_OMM_VERS = 2.0
CREATION_DATE  = 
ORIGINATOR     = 

OBJECT_NAME    = STARLINK-36554
OBJECT_ID      = 2026-012K
CENTER_NAME    = EARTH
REF_FRAME      = TEME
TIME_SYSTEM    = UTC
MEAN_ELEMENT_THEORY = SGP/SGP4

EPOCH          = 2026-02-17T04:00:00.999936
MEAN_MOTION    = 15.36449856
ECCENTRICITY   = .0000992
INCLINATION    = 42.9995
RA_OF_ASC_NODE = 70.2878
ARG_OF_PERICENTER = 253.7692
MEAN_ANOMALY   = 97.1962

EPHEMERIS_TYPE = 0
CLASSIFICATION_TYPE = U
NORAD_CAT_ID   = 67502
ELEMENT_SET_NO = 999
REV_AT_EPOCH   = 571
BSTAR          = -.55199E-1
MEAN_MOTION_DOT = -.1805613E-1
MEAN_MOTION_DDOT = 0

CCSDS_OMM_VERS = 2.0
CREATION_DATE  = 
ORIGINATOR     = 

OBJECT_NAME    = STARLINK-36552
OBJECT_ID      = 2026-012L
CENTER_NAME    = EARTH
REF_FRAME      = TEME
TIME_SYSTEM    = UTC
MEAN_ELEMENT_THEORY = SGP/SGP4

EPOCH          = 2026-02-17T04:00:00.999936
MEAN_MOTION    = 15.29775034
ECCENTRICITY   = .0001809
INCLINATION    = 42.9997
RA_OF_ASC_NODE = 70.1479
ARG_OF_PERICENTER = 275.3067
MEAN_ANOMALY   = 129.4521

EPHEMERIS_TYPE = 0
CLASSIFICATION_TYPE = U
NORAD_CAT_ID   = 67503
ELEMENT_SET_NO = 999
REV_AT_EPOCH   = 577
BSTAR          = -.98066E-1
MEAN_MOTION_DOT = -.2584141E-1
MEAN_MOTION_DDOT = 0

CCSDS_OMM_VERS = 2.0
CREATION_DATE  = 
ORIGINATOR     = 

OBJECT_NAME    = STARLINK-36512
OBJECT_ID      = 2026-012M
CENTER_NAME    = EARTH
REF_FRAME      = TEME
TIME_SYSTEM    = UTC
MEAN_ELEMENT_THEORY = SGP/SGP4

EPOCH          = 2026-02-17T04:00:00.999936
MEAN_MOTION    = 15.33811532
ECCENTRICITY   = .0001329
INCLINATION    = 42.9995
RA_OF_ASC_NODE = 70.0946
ARG_OF_PERICENTER = 273.3638
MEAN_ANOMALY   = 154.2948

EPHEMERIS_TYPE = 0
CLASSIFICATION_TYPE = U
NORAD_CAT_ID   = 67504
ELEMENT_SET_NO = 999
REV_AT_EPOCH   = 577
BSTAR          = -.61499E-1
MEAN_MOTION_DOT = -.1843424E-1
MEAN_MOTION_DDOT = 0

