STARLINK-36551          
1 67493U 26012A   26048.16667824  .00000387  00000+0  23570-4 0  9998
2 67493  42.9997  70.6827 0001059 265.5271 281.4425 15.27571849  5778
STARLINK-36396          
1 67494U 26012B   26048.16667824 -.01867476  00000+0 -39691-1 0  9990
2 67494  43.0005  70.8636 0001154 286.0667 192.8759 15.47322533  5775
STARLINK-36550          
1 67495U 26012C   26048.16667824 -.01856192  00000+0 -62715-1 0  9997
2 67495  43.0004  70.6549 0000916 297.8533 264.2253 15.33442673  5779
STARLINK-36534          
1 67496U 26012D   26048.16667824 -.02212064  00000+0 -82867-1 0  9993
2 67496  43.0000  70.5031 0001720 254.1715   8.0450 15.30216349  5716
STARLINK-36555          
1 67497U 26012E   26048.16667824 -.02892793  00000+0 -11000+0 0  9996
2 67497  43.0005  70.5359 0000298 284.6947 324.0263 15.30174634  5778
STARLINK-36081          
1 67498U 26012F   26048.16667824 -.01852772  00000+0 -56647-1 0  9997
2 67498  43.0009  70.5492 0000927 281.7431 323.3955 15.36535013  5718
STARLINK-36558          
1 67499U 26012G   26048.16667824 -.01877848  00000+0 -55898-1 0  9996
2 67499  43.0008  70.5183 0000795 277.0769 340.6090 15.37402095  5772
STARLINK-36557          
1 67500U 26012H   26048.16667824  .00004453  00000+0  17138-3 0  9997
2 67500  42.9999  70.3355 0001243 292.0343  36.4579 15.27555124  5778
STARLINK-36433          
1 67501U 26012J   26048.16667824 -.00650139  00000+0 -25110-1 0  9995
2 67501  42.9994  70.2830 0000429 281.3695  68.1231 15.27995917  5772
STARLINK-36554          
1 67502U 26012K   26048.16667824 -.01805613  00000+0 -55199-1 0  9996
2 67502  42.9995  70.2878 0000992 253.7692  97.1962 15.36449856  5714
STARLINK-36552          
1 67503U 26012L   26048.16667824 -.02584141  00000+0 -98066-1 0  9998
2 67503  42.9997  70.1479 0001809 275.3067 129.4521 15.29775034  5775
STARLINK-36512          
1 67504U 26012M   26048.16667824 -.01843424  00000+0 -61499-1 0  9990
2 67504  42.9995  70.0946 0001329 273.3638 154.2948 15.33811532  5779
